NOAA 15                 
1 25338U 98030A   25057.52484515  .00000506  00000+0  22594-3 0  9999
2 25338  98.5471  85.0834 0009253 304.1050  55.9252 14.26894538393459
NOAA 18                 
1 28654U 05018A   25057.56333201  .00000493  00000+0  28494-3 0  9996
2 28654  98.8492 138.1813 0014971  64.6846 295.5875 14.13526795 19114
NOAA 19                 
1 33591U 09005A   25057.62372732  .00000442  00000+0  25987-3 0  9999
2 33591  99.0109 121.6998 0012820 295.7936  64.1913 14.13295471827302
METOP-B                 
1 38771U 12049A   25057.55852917  .00000379  00000+0  19320-3 0  9999
2 38771  98.5928 114.6054 0000438  65.1923 294.9300 14.21440455645698
SARAL                   
1 39086U 13009A   25057.59813576  .00000432  00000+0  17484-3 0  9997
2 39086  98.5523 245.2834 0000924 233.1776 126.9323 14.32666527627500
METOP-C                 
1 43689U 18087A   25057.59584944  .00000389  00000+0  19772-3 0  9999
2 43689  98.6880 119.4376 0002461  92.0017 268.1443 14.21511383327261
ANGELS                  
1 44876U 19092D   25057.60017145  .00048129  00000+0  13178-2 0  9998
2 44876  97.4631 253.8634 0007905 134.6825 225.5064 15.37147483288287
OTB-3-GAZELLE           
1 54023U 22127A   25057.52026438  .00000526  00000+0  17178-3 0  9996
2 54023  98.3629  52.4888 0013165 178.6479 181.4749 14.42420869125783
EOS-6 (OCEANSAT-3)      
1 54361U 22158A   25057.55530044  .00001186  00000+0  33834-3 0  9991
2 54361  98.3487 157.1724 0001286  66.2139 293.9188 14.46968144119054
